ION SCV-004             
1 50993U 22002K   26137.10921048  .00004270  00000+0  14892-3 0  9995
2 50993  97.2854 195.3558 0009190 103.3569 256.8697 15.30116781240546
ETV-A1                  
1 51060U 22002CE  26137.61087655  .00007471  00000+0  18925-3 0  9991
2 51060  97.2893 204.0173 0006902  97.7454 262.4576 15.39995432241135
BRO-5                   
1 51061U 22002CF  26137.64493152  .00012310  00000+0  25748-3 0  9997
2 51061  97.3012 211.0833 0006472  87.0372 273.1618 15.45593007241533
LUDI TANCE 1-01A (L-SA*)
1 51284U 22007A   26137.59289339  .00000318  00000+0  40133-4 0  9994
2 51284  97.8082 145.4479 0001610  91.5475 268.5927 14.88416907233925
LUDI TANCE 1-01B (L-SA*)
1 51822U 22018A   26137.62648939  .00000349  00000+0  43524-4 0  9994
2 51822  97.8090 145.4771 0001624  92.1597 267.9806 14.88418125229168
JILIN-1 GAOFEN 03D15    
1 51839U 22019R   26137.59827916  .00308206  38801-4  83618-3 0  9998
2 51839  97.3639 233.5218 0006386 227.8282 132.2451 15.94180304235242
JILIN-1 GAOFEN 03D12    
1 51841U 22019T   26137.63326061  .00318066  41945-4  80327-3 0  9993
2 51841  97.3650 233.5088 0006722 224.0716 136.0025 15.95521786235252
2022-023F               
1 51951U 22023F   26137.64337231  .00013353  00000+0  53545-3 0  9997
2 51951  63.4480  17.3191 0128290 343.8315  15.8720 15.17982103233074
MERIDIAN 10             
1 52145U 22030A   26137.06586204  .00000243  00000+0  00000+0 0  9991
2 52145  62.6760 144.1393 6775507 272.8788  17.7083  2.00616156 30400
OMNI-L1                 
1 52157U 22033A   26137.47253596  .00001024  00000+0  13357-3 0  9998
2 52157  97.8397 217.2489 0005871  39.2500 320.9139 14.82622474222900
ENMAP                   
1 52159U 22033C   26137.63799448  .00000031  00000+0  11996-4 0  9994
2 52159  97.9796 220.3210 0001516  85.8777 274.2605 14.74958641222153
ARCSAT-1                
1 52161U 22033E   26137.20129871  .00010192  00000+0  16616-3 0  9999
2 52161  97.2748 229.0345 0003565 323.2318  36.8690 15.52801777230897
GLOBAL-18               
1 52196U 22034B   26137.15171337  .00016720  00000+0  35820-3 0  9997
2 52196  52.9828  44.8063 0005332 140.2475 219.8921 15.44903790232168
GAOFEN-3 03             
1 52200U 22035A   26137.63400446  .00000050  00000+0  28497-4 0  9995
2 52200  98.4065 146.6568 0001011  79.3159 280.8144 14.42219480216445
DAQI-1                  
1 52257U 22039A   26137.59903991  .00000046  00000+0  20037-4 0  9996
2 52257  98.1478  77.0858 0003955  12.0430 348.0863 14.57656589217487
BRO-6                   
1 52422U 22047AE  26137.59194532  .00022463  00000+0  42157-3 0  9995
2 52422  97.3403 228.1075 0005465 169.9063 190.2298 15.48620911226415
JILIN-1 GAOFEN 3D27     
1 52444U 22048B   26137.59834921  .00064288  00000+0  55850-3 0  9998
2 52444  97.5690 248.9370 0005343 156.5341 203.6165 15.68874261224672
JILIN-1 GAOFEN 3D28     
1 52445U 22048C   26137.58326362  .00068676  00000+0  54610-3 0  9991
2 52445  97.5627 248.9721 0004260 174.0543 186.0771 15.71011063224718
VIGORIDE-3              
1 52760U 22057AE  26137.28865133  .00003636  00000+0  14041-3 0  9991
2 52760  97.6564 276.4608 0007460 225.5781 134.4847 15.26927120220447
ION SCV-006             
1 52761U 22057AF  26137.65746862  .00006962  00000+0  15147-3 0  9993
2 52761  97.6067 284.8412 0016858 220.8357 139.1629 15.44508627221404
SHERPA-AC1              
1 52763U 22057AH  26137.31842682  .00005428  00000+0  15827-3 0  9996
2 52763  97.6648 285.2769 0007461 192.2393 167.8670 15.35794999220966
OMNI-L2                 
1 52771U 22057AR  26137.59051914  .00000822  00000+0  11139-3 0  9990
2 52771  97.4729 202.0043 0008214  71.6297 288.5810 14.81280291215860
STEP CUBE LAB-II        
1 52897U 22065D   26137.63825078  .00000414  00000+0  89696-4 0  9994
2 52897  98.2182 281.6418 0009793 116.9539 243.2665 14.63249129207036
RANDEV                  
1 52898U 22065E   26137.64738067  .00000555  00000+0  11607-3 0  9999
2 52898  98.2165 281.9890 0009060 116.5970 243.6162 14.63634882206788
SNUGLITE-II             
1 52899U 22065F   26137.34999718  .00000561  00000+0  11552-3 0  9995
2 52899  98.2161 282.2435 0008693 117.3184 242.8905 14.64284089206485
MIMAN                   
1 52900U 22065G   26137.38346653  .00000317  00000+0  73036-4 0  9991
2 52900  98.2219 280.0289 0008797 118.6658 241.5429 14.61806163205947
STARLINK-4362           
1 53043U 22077A   26137.49541306  .00000265  00000+0  22433-4 0  9994
2 53043  97.4811 317.6353 0001669  91.0316 269.1102 15.05643983211264
