OBJECT_NAME,OBJECT_ID,EPOCH,MEAN_MOTION,ECCENTRICITY,INCLINATION,RA_OF_ASC_NODE,ARG_OF_PERICENTER,MEAN_ANOMALY,EPHEMERIS_TYPE,CLASSIFICATION_TYPE,NORAD_CAT_ID,ELEMENT_SET_NO,REV_AT_EPOCH,BSTAR,MEAN_MOTION_DOT,MEAN_MOTION_DDOT
ION SCV-004,2022-002K,2026-05-17T02:37:15.785472,15.30116781,.00091905,97.2854,195.3558,103.3569,256.8697,0,U,50993,999,24054,.14892486E-3,.427E-4,0
ETV-A1,2022-002CE,2026-05-17T14:39:39.733920,15.39995432,.00069028,97.2893,204.0173,97.7454,262.4576,0,U,51060,999,24113,.18924833E-3,.7471E-4,0
BRO-5,2022-002CF,2026-05-17T15:28:42.083328,15.45593007,.00064727,97.3012,211.0833,87.0372,273.1618,0,U,51061,999,24153,.25747588E-3,.1231E-3,0
LUDI TANCE 1-01A (L-SAR 01A),2022-007A,2026-05-17T14:13:45.988896,14.88416907,.00016101,97.8082,145.4479,91.5475,268.5927,0,U,51284,999,23392,.4013304E-4,.318E-5,0
LUDI TANCE 1-01B (L-SAR 01B),2022-018A,2026-05-17T15:02:08.683296,14.88418125,.00016248,97.8090,145.4771,92.1597,267.9806,0,U,51822,999,22916,.43524054E-4,.349E-5,0
JILIN-1 GAOFEN 03D15,2022-019R,2026-05-17T14:21:31.319424,15.94180304,.00063865,97.3639,233.5218,227.8282,132.2451,0,U,51839,999,23524,.83618093E-3,.308206E-2,.38800884E-4
JILIN-1 GAOFEN 03D12,2022-019T,2026-05-17T15:11:53.716704,15.95521786,.0006722,97.3650,233.5088,224.0716,136.0025,0,U,51841,999,23525,.80327347E-3,.318066E-2,.41944593E-4
2022-023F,2022-023F,2026-05-17T15:26:27.367584,15.17982103,.01282907,63.4480,17.3191,343.8315,15.8720,0,U,51951,999,23307,.53544662E-3,.13353E-3,0
MERIDIAN 10,2022-030A,2026-05-17T01:34:50.480256,2.00616156,.67755074,62.6760,144.1393,272.8788,17.7083,0,U,52145,999,3040,0,.243E-5,0
OMNI-L1,2022-033A,2026-05-17T11:20:27.106944,14.82622474,.00058717,97.8397,217.2489,39.2500,320.9139,0,U,52157,999,22290,.13357175E-3,.1024E-4,0
ENMAP,2022-033C,2026-05-17T15:18:42.723072,14.74958641,.00015164,97.9796,220.3210,85.8777,274.2605,0,U,52159,999,22215,.11995638E-4,.31E-6,0
ARCSAT-1,2022-033E,2026-05-17T04:49:52.208544,15.52801777,.00035654,97.2748,229.0345,323.2318,36.8690,0,U,52161,999,23089,.16616063E-3,.10192E-3,0
GLOBAL-18,2022-034B,2026-05-17T03:38:28.035168,15.44903790,.00053326,52.9828,44.8063,140.2475,219.8921,0,U,52196,999,23216,.35819913E-3,.1672E-3,0
GAOFEN-3 03,2022-035A,2026-05-17T15:12:57.985344,14.42219480,.00010113,98.4065,146.6568,79.3159,280.8144,0,U,52200,999,21644,.28496994E-4,.5E-6,0
DAQI-1,2022-039A,2026-05-17T14:22:37.048224,14.57656589,.00039553,98.1478,77.0858,12.0430,348.0863,0,U,52257,999,21748,.20037157E-4,.46E-6,0
BRO-6,2022-047AE,2026-05-17T14:12:24.075648,15.48620911,.00054653,97.3403,228.1075,169.9063,190.2298,0,U,52422,999,22641,.42156969E-3,.22463E-3,0
JILIN-1 GAOFEN 3D27,2022-048B,2026-05-17T14:21:37.371744,15.68874261,.0005343,97.5690,248.9370,156.5341,203.6165,0,U,52444,999,22467,.55849619E-3,.64288E-3,0
JILIN-1 GAOFEN 3D28,2022-048C,2026-05-17T13:59:53.976768,15.71011063,.00042607,97.5627,248.9721,174.0543,186.0771,0,U,52445,999,22471,.54610281E-3,.68676E-3,0
VIGORIDE-3,2022-057AE,2026-05-17T06:55:39.474912,15.26927120,.000746,97.6564,276.4608,225.5781,134.4847,0,U,52760,999,22044,.14040632E-3,.3636E-4,0
ION SCV-006,2022-057AF,2026-05-17T15:46:45.288768,15.44508627,.00168588,97.6067,284.8412,220.8357,139.1629,0,U,52761,999,22140,.15147468E-3,.6962E-4,0
SHERPA-AC1,2022-057AH,2026-05-17T07:38:32.077248,15.35794999,.00074613,97.6648,285.2769,192.2393,167.8670,0,U,52763,999,22096,.15827255E-3,.5428E-4,0
OMNI-L2,2022-057AR,2026-05-17T14:10:20.853696,14.81280291,.00082142,97.4729,202.0043,71.6297,288.5810,0,U,52771,999,21586,.11139344E-3,.822E-5,0
STEP CUBE LAB-II,2022-065D,2026-05-17T15:19:04.867392,14.63249129,.00097938,98.2182,281.6418,116.9539,243.2665,0,U,52897,999,20703,.89696233E-4,.414E-5,0
RANDEV,2022-065E,2026-05-17T15:32:13.689888,14.63634882,.00090603,98.2165,281.9890,116.5970,243.6162,0,U,52898,999,20678,.11606753E-3,.555E-5,0
SNUGLITE-II,2022-065F,2026-05-17T08:23:59.756352,14.64284089,.0008693,98.2161,282.2435,117.3184,242.8905,0,U,52899,999,20648,.11552468E-3,.561E-5,0
MIMAN,2022-065G,2026-05-17T09:12:11.508192,14.61806163,.00087971,98.2219,280.0289,118.6658,241.5429,0,U,52900,999,20594,.7303577E-4,.317E-5,0
STARLINK-4362,2022-077A,2026-05-17T11:53:23.688384,15.05643983,.00016694,97.4811,317.6353,91.0316,269.1102,0,U,53043,999,21126,.22432649E-4,.265E-5,0
